COSMOS 2425 (716)       
1 29670U 06062A   21031.48105091  .00000066  00000-0  00000+0 0  9994
2 29670  64.8814 260.0788 0024598 349.2704 195.1614  2.13107663109742
COSMOS 2433 (720)       
1 32275U 07052A   21032.41679126 -.00000026  00000-0  00000-0 0  9996
2 32275  66.0399  21.3044 0005286 263.3233  98.5194  2.13104286103299
COSMOS 2432 (719)       
1 32276U 07052B   21032.48387576 -.00000026  00000-0  00000-0 0  9999
2 32276  66.0524  21.3943 0011952 318.3700  44.5351  2.13103586103293
COSMOS 2434 (721)       
1 32393U 07065A   21031.34962558  .00000068  00000-0  00000+0 0  9990
2 32393  64.4972 258.6048 0004254  73.4691  77.6878  2.13103056101974
COSMOS 2436 (723)       
1 32395U 07065C   21032.50862630  .00000062  00000-0  00000-0 0  9996
2 32395  64.5056 258.6173 0016032   4.7633  91.6988  2.13102992101931
COSMOS 2456 (730)       
1 36111U 09070A   21032.33899874  .00000031  00000-0  00000-0 0  9991
2 36111  64.2555 138.2505 0002780 327.2511  35.2829  2.13099160 86669
COSMOS 2457 (733)       
1 36112U 09070B   21032.53970514  .00000030  00000-0  00000-0 0  9994
2 36112  64.2385 138.1318 0006001 158.4627 121.3373  2.13101425 86663
COSMOS 2459 (731)       
1 36400U 10007A   21032.22529266 -.00000027  00000-0  00000-0 0  9993
2 36400  65.9380  20.2527 0026108 343.8910  87.1919  2.13105139 85002
COSMOS 2461 (735)       
1 36401U 10007B   21032.25801757 -.00000027  00000-0  00000-0 0  9995
2 36401  65.9339  20.2155 0020249 359.1153  99.0088  2.13103799 85013
COSMOS 2460 (732)       
1 36402U 10007C   21032.42865766 -.00000027  00000-0  00000-0 0  9995
2 36402  65.9203  20.1705 0002642 279.8714 252.6153  2.13106612 85019
COSMOS 2464 (736)       
1 37139U 10041C   21032.21247912  .00000063  00000-0  00000-0 0  9994
2 37139  64.0972 257.8999 0028963  12.5034 302.5373  2.13100793 81069
COSMOS 2471 (701K)      
1 37372U 11009A   21032.58369115 -.00000027  00000-0  00000-0 0  9999
2 37372  65.9169  20.1030 0010277 236.1457 218.8498  2.13107463 77293
COSMOS 2476 (744)       
1 37867U 11064A   21032.34116506  .00000033  00000-0  00000-0 0  9993
2 37867  64.5523 139.4095 0019582 234.2843  31.0778  2.13101887 72006
COSMOS 2477 (745)       
1 37868U 11064B   21032.60435981  .00000032  00000-0  00000-0 0  9993
2 37868  64.5602 139.4597 0017117 235.0397  50.6329  2.13101706 71960
COSMOS 2475 (743)       
1 37869U 11064C   21032.44049332  .00000032  00000-0  00000-0 0  9997
2 37869  64.5674 139.4689 0020717 257.0318 220.5172  2.13101821 71972
COSMOS 2485 (747)       
1 39155U 13019A   21032.40907603  .00000033  00000-0  00000-0 0  9990
2 39155  64.7191 139.7264 0020086 229.6517 132.3241  2.13101801 60484
COSMOS 2492 (754)       
1 39620U 14012A   21032.20848519 -.00000028  00000-0  00000-0 0  9994
2 39620  65.8100  19.9281 0015198 317.2981 285.7110  2.13103273 53427
COSMOS 2500 (755)       
1 40001U 14032A   21031.93649387 -.00000028  00000-0  00000-0 0  9992
2 40001  65.7493  19.8350 0007444 224.5528  29.7483  2.13102532 51631
COSMOS 2501 (702K)      
1 40315U 14075A   21032.56116688  .00000060  00000-0  00000-0 0  9995
2 40315  63.8108 258.7472 0015561 209.1865 330.2232  2.13101385 48051
COSMOS 2514 (751)       
1 41330U 16008A   21031.67673277 -.00000029  00000-0  00000+0 0  9999
2 41330  65.5523  19.6610 0011283 226.4726  11.4349  2.13102951 38799
COSMOS 2516 (753)       
1 41554U 16032A   21032.44007531  .00000061  00000-0  00000-0 0  9990
2 41554  64.0343 258.8875 0011426 216.5752 139.2813  2.13106910 36410
COSMOS 2522 (752)       
1 42939U 17055A   21031.46799237  .00000066  00000-0  00000+0 0  9990
2 42939  64.2696 259.1690 0005884 255.4535 300.2275  2.13102058 26153
COSMOS 2527 (756)       
1 43508U 18053A   21032.47247584  .00000033  00000-0  00000-0 0  9992
2 43508  64.8854 139.6207 0007155 222.9561  55.3284  2.13102593 20465
COSMOS 2529 (757)       
1 43687U 18086A   21032.67740512  .00000060  00000-0  00000+0 0  9996
2 43687  64.4829 259.3087 0008776 280.2580  78.8075  2.13102182 17485
COSMOS 2534 (758)       
1 44299U 19030A   21032.26891024  .00000062  00000-0  00000-0 0  9999
2 44299  64.5510 259.1602 0012042 297.8559 242.7271  2.13101982 13129
COSMOS 2544 (759)       
1 44850U 19088A   21032.40348313  .00000033  00000-0  00000-0 0  9997
2 44850  64.8685 139.4848 0010730 260.2278   9.0033  2.13102384  8901
COSMOS 2545 (760)       
1 45358U 20018A   21032.40577755 -.00000030  00000-0  00000-0 0  9998
2 45358  64.8831  20.6576 0011406 256.7899 224.3910  2.13102744  6855
